{
  "type": "FeatureCollection",
  "features": [
    {
      "type": "Feature",
      "properties": {
        "norad_id": 66632,
        "name": "STARLINK-35973",
        "group": "last-30-days",
        "lat": -9.416274451035994,
        "lon": 113.37442210937897,
        "alt_km": 448.49209461925057,
        "timestamp": "2025-12-26T20:30:44.699117+00:00",
        "meta_object_name": "STARLINK-35973",
        "meta_object_id": "2025-271R",
        "meta_epoch": "2025-12-25T19:38:14.121600",
        "meta_mean_motion": 15.39623686,
        "meta_eccentricity": 0.00014116,
        "meta_inclination": 53.1597,
        "meta_ra_of_asc_node": 125.4024,
        "meta_arg_of_pericenter": 47.8203,
        "meta_mean_anomaly": 312.2922,
        "meta_ephemeris_type": 0,
        "meta_classification_type": "U",
        "meta_norad_cat_id": 66632,
        "meta_element_set_no": 999,
        "meta_rev_at_epoch": 618,
        "meta_bstar": 0.0013165644,
        "meta_mean_motion_dot": 0.00052633,
        "meta_mean_motion_ddot": 0,
        "tle_line1": "1 66632U 25271R   25359.81821900  .00052633  00000+0  13166-2 0  9990",
        "tle_line2": "2 66632  53.1597 125.4024 0001411  47.8203 312.2922 15.39623686  6189"
      },
      "geometry": {
        "type": "Point",
        "coordinates": [
          113.37442210937897,
          -9.416274451035994
        ]
      }
    },
    {
      "type": "Feature",
      "properties": {
        "norad_id": 66633,
        "name": "STARLINK-35948",
        "group": "last-30-days",
        "lat": -8.088469653421914,
        "lon": 114.40246881709812,
        "alt_km": 449.87939844221546,
        "timestamp": "2025-12-26T20:30:44.699126+00:00",
        "meta_object_name": "STARLINK-35948",
        "meta_object_id": "2025-271S",
        "meta_epoch": "2025-12-26T14:19:28.764480",
        "meta_mean_motion": 15.39655709,
        "meta_eccentricity": 0.00015828,
        "meta_inclination": 53.1609,
        "meta_ra_of_asc_node": 121.7338,
        "meta_arg_of_pericenter": 138.0885,
        "meta_mean_anomaly": 222.0241,
        "meta_ephemeris_type": 0,
        "meta_classification_type": "U",
        "meta_norad_cat_id": 66633,
        "meta_element_set_no": 999,
        "meta_rev_at_epoch": 634,
        "meta_bstar": 0.0010417154,
        "meta_mean_motion_dot": 0.00041545,
        "meta_mean_motion_ddot": 0,
        "tle_line1": "1 66633U 25271S   25360.59686070  .00041545  00000+0  10417-2 0  9991",
        "tle_line2": "2 66633  53.1609 121.7338 0001582 138.0885 222.0241 15.39655709  6340"
      },
      "geometry": {
        "type": "Point",
        "coordinates": [
          114.40246881709812,
          -8.088469653421914
        ]
      }
    },
    {
      "type": "Feature",
      "properties": {
        "norad_id": 66634,
        "name": "STARLINK-35967",
        "group": "last-30-days",
        "lat": 12.47771765898124,
        "lon": 130.01367338995863,
        "alt_km": 445.82844960278817,
        "timestamp": "2025-12-26T20:30:44.699135+00:00",
        "meta_object_name": "STARLINK-35967",
        "meta_object_id": "2025-271T",
        "meta_epoch": "2025-12-26T14:12:47.342304",
        "meta_mean_motion": 15.39676406,
        "meta_eccentricity": 0.00010638,
        "meta_inclination": 53.1614,
        "meta_ra_of_asc_node": 121.7017,
        "meta_arg_of_pericenter": 81.6663,
        "meta_mean_anomaly": 278.4463,
        "meta_ephemeris_type": 0,
        "meta_classification_type": "U",
        "meta_norad_cat_id": 66634,
        "meta_element_set_no": 999,
        "meta_rev_at_epoch": 630,
        "meta_bstar": 0.001418721,
        "meta_mean_motion_dot": 0.00056878,
        "meta_mean_motion_ddot": 0,
        "tle_line1": "1 66634U 25271T   25360.59221461  .00056878  00000+0  14187-2 0  9994",
        "tle_line2": "2 66634  53.1614 121.7017 0001063  81.6663 278.4463 15.39676406  6306"
      },
      "geometry": {
        "type": "Point",
        "coordinates": [
          130.01367338995863,
          12.47771765898124
        ]
      }
    },
    {
      "type": "Feature",
      "properties": {
        "norad_id": 66635,
        "name": "STARLINK-35955",
        "group": "last-30-days",
        "lat": 47.62488770838455,
        "lon": 175.62312653685456,
        "alt_km": 439.5816339327084,
        "timestamp": "2025-12-26T20:30:44.699144+00:00",
        "meta_object_name": "STARLINK-35955",
        "meta_object_id": "2025-271U",
        "meta_epoch": "2025-12-25T19:17:41.940096",
        "meta_mean_motion": 15.39634184,
        "meta_eccentricity": 0.00013376,
        "meta_inclination": 53.1599,
        "meta_ra_of_asc_node": 125.3143,
        "meta_arg_of_pericenter": 69.5636,
        "meta_mean_anomaly": 290.5513,
        "meta_ephemeris_type": 0,
        "meta_classification_type": "U",
        "meta_norad_cat_id": 66635,
        "meta_element_set_no": 999,
        "meta_rev_at_epoch": 622,
        "meta_bstar": 0.0013073376,
        "meta_mean_motion_dot": 0.00052277,
        "meta_mean_motion_ddot": 0,
        "tle_line1": "1 66635U 25271U   25359.80395764  .00052277  00000+0  13073-2 0  9997",
        "tle_line2": "2 66635  53.1599 125.3143 0001337  69.5636 290.5513 15.39634184  6227"
      },
      "geometry": {
        "type": "Point",
        "coordinates": [
          175.62312653685456,
          47.62488770838455
        ]
      }
    },
    {
      "type": "Feature",
      "properties": {
        "norad_id": 66636,
        "name": "STARLINK-35968",
        "group": "last-30-days",
        "lat": 31.949903426097507,
        "lon": 148.2893801101127,
        "alt_km": 443.34337428256276,
        "timestamp": "2025-12-26T20:30:44.699153+00:00",
        "meta_object_name": "STARLINK-35968",
        "meta_object_id": "2025-271V",
        "meta_epoch": "2025-12-26T14:06:06.295104",
        "meta_mean_motion": 15.3965736,
        "meta_eccentricity": 0.00016315,
        "meta_inclination": 53.1603,
        "meta_ra_of_asc_node": 121.6725,
        "meta_arg_of_pericenter": 143.8008,
        "meta_mean_anomaly": 216.3108,
        "meta_ephemeris_type": 0,
        "meta_classification_type": "U",
        "meta_norad_cat_id": 66636,
        "meta_element_set_no": 999,
        "meta_rev_at_epoch": 634,
        "meta_bstar": 0.0012495081,
        "meta_mean_motion_dot": 0.0004997,
        "meta_mean_motion_ddot": 0,
        "tle_line1": "1 66636U 25271V   25360.58757286  .00049970  00000+0  12495-2 0  9999",
        "tle_line2": "2 66636  53.1603 121.6725 0001631 143.8008 216.3108 15.39657360  6345"
      },
      "geometry": {
        "type": "Point",
        "coordinates": [
          148.2893801101127,
          31.949903426097507
        ]
      }
    },
    {
      "type": "Feature",
      "properties": {
        "norad_id": 66637,
        "name": "STARLINK-35953",
        "group": "last-30-days",
        "lat": 53.03754787376979,
        "lon": -144.73648606880903,
        "alt_km": 439.0041227162428,
        "timestamp": "2025-12-26T20:30:44.699162+00:00",
        "meta_object_name": "STARLINK-35953",
        "meta_object_id": "2025-271W",
        "meta_epoch": "2025-12-26T15:26:12.772032",
        "meta_mean_motion": 15.39656783,
        "meta_eccentricity": 0.00013765,
        "meta_inclination": 53.16,
        "meta_ra_of_asc_node": 121.3067,
        "meta_arg_of_pericenter": 93.3445,
        "meta_mean_anomaly": 266.7717,
        "meta_ephemeris_type": 0,
        "meta_classification_type": "U",
        "meta_norad_cat_id": 66637,
        "meta_element_set_no": 999,
        "meta_rev_at_epoch": 635,
        "meta_bstar": 0.0010854764,
        "meta_mean_motion_dot": 0.00043318,
        "meta_mean_motion_ddot": 0,
        "tle_line1": "1 66637U 25271W   25360.64320338  .00043318  00000+0  10855-2 0  9999",
        "tle_line2": "2 66637  53.1600 121.3067 0001376  93.3445 266.7717 15.39656783  6353"
      },
      "geometry": {
        "type": "Point",
        "coordinates": [
          -144.73648606880903,
          53.03754787376979
        ]
      }
    },
    {
      "type": "Feature",
      "properties": {
        "norad_id": 66638,
        "name": "STARLINK-35972",
        "group": "last-30-days",
        "lat": 27.653545958395128,
        "lon": -82.92301339833688,
        "alt_km": 443.5026893536824,
        "timestamp": "2025-12-26T20:30:44.699171+00:00",
        "meta_object_name": "STARLINK-35972",
        "meta_object_id": "2025-271X",
        "meta_epoch": "2025-12-26T15:12:50.248224",
        "meta_mean_motion": 15.39620683,
        "meta_eccentricity": 0.00011044,
        "meta_inclination": 53.1593,
        "meta_ra_of_asc_node": 121.2492,
        "meta_arg_of_pericenter": 85.6164,
        "meta_mean_anomaly": 274.4967,
        "meta_ephemeris_type": 0,
        "meta_classification_type": "U",
        "meta_norad_cat_id": 66638,
        "meta_element_set_no": 999,
        "meta_rev_at_epoch": 635,
        "meta_bstar": 0.0013555818,
        "meta_mean_motion_dot": 0.0005421,
        "meta_mean_motion_ddot": 0,
        "tle_line1": "1 66638U 25271X   25360.63391491  .00054210  00000+0  13556-2 0  9991",
        "tle_line2": "2 66638  53.1593 121.2492 0001104  85.6164 274.4967 15.39620683  6350"
      },
      "geometry": {
        "type": "Point",
        "coordinates": [
          -82.92301339833688,
          27.653545958395128
        ]
      }
    }
  ]
}